ION SCV-004             
1 50993U 22002K   26068.68892644  .00006538  00000+0  23198-3 0  9998
2 50993  97.2961 128.2294 0007216   1.6783 358.4480 15.29369331230088
STARLINK-32560          
1 61982U 24210Z   26068.62945189  .00027930  00000+0  10189-2 0  9992
2 61982  43.0062 179.9209 0003359 300.7869  59.2652 15.27631693 74871
